354P/LINEAR,e,5.2510,320.0717,132.7927,2.289751,0.2844602,0.12448596,55.7824,04/27.0/2024,2000,g 15.5,4.0
# From MPEC 2023-CD7
355P/LINEAR-NEAT,e,11.0471,51.4342,336.3291,3.469839,0.1524896,0.50811193,3.9033,04/27.0/2024,2000,g 15.5,2.0
# From MPEC 2022-F14
356P/WISE,e,9.6401,160.8122,226.1323,4.154511,0.1163923,0.35606968,269.6805,04/27.0/2024,2000,g 14.0,4.0
# From MPC114609
357P/Hill,e,6.3146,44.5804,1.4471,4.456158,0.1047763,0.43613159,225.8750,04/27.0/2024,2000,g 15.5,4.0
# From MPEC 2024-EF7
358P/PANSTARRS,e,11.0644,85.6660,299.6027,3.149497,0.1763365,0.23975525,29.7256,04/27.0/2024,2000,g 18.0,4.0
# From MPC110086
359P/LONEOS,e,10.2639,149.7731,200.2934,4.641211,0.0985728,0.32359403,240.3358,04/27.0/2024,2000,g 13.5,4.0
# From MPC108599
360P/WISE,e,24.1084,2.2134,354.2357,3.697286,0.1386371,0.49916981,337.8546,04/27.0/2024,2000,g 19.5,6.0
# From MPEC 2023-CD7
361P/Spacewatch,e,13.9024,203.2551,219.0559,4.933654,0.0899396,0.43954938,190.8530,04/27.0/2024,2000,g 12.0,4.0
# From MPEC 2017-V13
362P/,e,15.5550,192.4948,53.5418,3.973525,0.1244343,0.27870023,349.5234,04/27.0/2024,2000,g 12.9,2.0
# From MPC114609
363P/Lemmon,e,5.3896,146.6560,340.8622,3.576560,0.1457155,0.51892757,330.8293,04/27.0/2024,2000,g 17.5,4.0
# From MPEC 2023-XP6
364P/PANSTARRS,e,12.1296,46.1496,212.1243,2.885285,0.2011041,0.72181631,70.1574,04/27.0/2024,2000,g 17.0,2.0
# From MPC111775
365P/PANSTARRS,e,9.8496,86.6566,67.4289,3.156453,0.1757539,0.58141650,35.2567,04/27.0/2024,2000,g 17.0,4.0
# From MPC114610
366P/Spacewatch,e,8.8570,70.7234,153.0242,3.498500,0.1506195,0.34832684,317.9788,04/27.0/2024,2000,g 15.0,4.0
# From MPC112395
367P/Catalina,e,8.4597,58.6610,172.7328,3.510123,0.1498720,0.27985588,321.0768,04/27.0/2024,2000,g 17.5,2.0
# From MPC114610
368P/NEAT,e,15.4813,257.8674,118.9535,5.532505,0.0757393,0.62635623,155.2628,04/27.0/2024,2000,g 14.0,4.0
# From MPC114610
369P/Hill,e,10.3227,47.2977,13.1894,4.379866,0.1075259,0.55589762,216.9339,04/27.0/2024,2000,g 15.0,4.0
# From MPEC 2021-F20
370P/NEAT,e,19.4238,55.0814,356.7411,6.437229,0.0603470,0.61552659,129.4853,04/27.0/2024,2000,g 13.0,4.0
# From MPC114610
371P/LINEAR-Skiff,e,17.3848,67.2836,308.5623,4.180478,0.1153095,0.47693870,233.9118,04/27.0/2024,2000,g 16.0,4.0
# From MPEC 2020-K19
372P/McNaught,e,9.5074,27.5510,326.0195,4.510692,0.1028820,0.15181098,206.9584,04/27.0/2024,2000,g 13.5,4.0
# From MPEC 2021-F20
373P/Rinner,e,13.7703,231.9458,221.0552,3.798790,0.1331178,0.39357747,245.3943,04/27.0/2024,2000,g 14.5,4.0
# From MPC114610
374P/Larson,e,10.7654,7.9044,51.5038,4.971044,0.0889268,0.46376333,171.6674,04/27.0/2024,2000,g 14.0,4.0
# From MPEC 2021-F20
375P/Hill,e,17.3659,359.8952,119.3821,5.546963,0.0754434,0.65974177,147.3346,04/27.0/2024,2000,g 16.0,4.0
# From MPEC 2022-K19
376P/LONEOS,e,1.1663,312.8843,285.4113,5.757588,0.0713417,0.51405828,120.2317,04/27.0/2024,2000,g 12.5,4.0
# From MPEC 2022-N37
377P/Scotti,e,9.0245,226.0361,354.8927,6.697932,0.0568582,0.25108546,78.8777,04/27.0/2024,2000,g  9.5,4.0
# From MPEC 2024-D33
378P/McNaught,e,19.1337,93.8380,193.4153,6.295370,0.0623982,0.46536315,80.7057,04/27.0/2024,2000,g 12.0,4.0
# From MPC115889
379P/Spacewatch,e,12.4455,30.5443,184.2410,3.490991,0.1511057,0.34954880,259.3228,04/27.0/2024,2000,g 15.0,4.0
# From MPEC 2023-C45
380P/PANSTARRS,e,8.0147,128.2436,87.8846,4.423373,0.1059434,0.33799119,194.2171,04/27.0/2024,2000,g 12.5,4.0
# From MPEC 2021-J28
381P/LINEAR-Spacewatch,e,28.3619,173.2902,173.8467,7.143050,0.0516272,0.68119822,86.4487,04/27.0/2024,2000,g 17.5,2.0
# From MPEC 2024-EF7
382P/Larson,e,8.2825,172.1842,162.4728,5.960701,0.0677264,0.27190625,60.0614,04/27.0/2024,2000,g  8.0,4.0
# From MPEC 2022-OB6
383P/Christensen,e,12.3209,207.8510,133.7573,3.547978,0.1474799,0.59883500,242.5512,04/27.0/2024,2000,g 18.0,4.0
# From MPEC 2022-OB6
384P/Kowalski,e,7.2832,354.2008,37.7067,2.898430,0.1997376,0.61629820,331.0101,04/27.0/2024,2000,g 19.5,4.0
# From MPEC 2021-F20
385P/Hill,e,16.8283,357.0678,44.3974,4.288736,0.1109712,0.40213034,186.8974,04/27.0/2024,2000,g 13.0,4.0
# From MPEC 2021-L04
386P/PANSTARRS,e,15.2399,134.9182,353.0803,4.050538,0.1209024,0.41702331,162.7860,04/27.0/2024,2000,g 14.5,4.0
# From MPEC 2021-J28
387P/Boattini,e,8.9354,259.2448,162.8238,4.797079,0.0938078,0.73709476,158.8075,04/27.0/2024,2000,g 15.0,4.0
# From MPEC 2021-S45
388P/Gibbs,e,23.8900,37.0310,42.3193,5.240581,0.0821552,0.61925596,142.7375,04/27.0/2024,2000,g 13.0,4.0
# From MPEC 2022-OB6
389P/Siding Spring,e,160.0862,218.8818,249.3844,5.632752,0.0737264,0.70505745,116.4400,04/27.0/2024,2000,g 16.0,4.0
# From MPEC 2024-EF7
390P/Gibbs,e,18.5394,152.2413,232.4806,5.814752,0.0702922,0.70722027,105.1659,04/27.0/2024,2000,g 12.0,4.0
# From MPEC 2021-F20
391P/Kowalski,e,21.2613,124.7888,187.1968,4.688253,0.0970929,0.11882524,216.6122,04/27.0/2024,2000,g  8.0,4.0
# From MPEC 2021-J28
392P/LINEAR,e,4.9316,24.8490,71.8950,6.140776,0.0647693,0.68373971,96.2467,04/27.0/2024,2000,g 14.5,4.0
# From MPEC 2023-T65
393P/Spacewatch-Hill,e,16.7872,36.3925,329.1630,4.797032,0.0938092,0.11987661,153.7719,04/27.0/2024,2000,g 11.0,4.0
# From MPEC 2020-KB7
394P/PANSTARRS,e,8.5295,98.1243,54.4031,4.328475,0.1094465,0.36779203,176.2582,04/27.0/2024,2000,g 16.0,2.4
# From MPEC 2024-C04
395P/Catalina-NEAT,e,3.5824,221.0353,99.7579,7.179799,0.0512313,0.41507116,40.8733,04/27.0/2024,2000,g 10.0,4.0
# From MPEC 2020-KB7
396P/,e,5.4395,136.6252,8.3144,6.800618,0.0555753,0.41638535,94.7110,04/27.0/2024,2000,g 12.0,4.0
# From MPEC 2022-OB6
397P/Lemmon,e,10.9255,8.2254,14.5579,3.831261,0.1314291,0.40503626,184.8948,04/27.0/2024,2000,g 12.0,4.0
# From MPEC 2021-L04
398P/Boattini,e,11.0222,320.1499,127.5021,3.125542,0.1783676,0.58357431,216.9628,04/27.0/2024,2000,g 15.5,4.0
# From MPEC 2023-XP6
399P/PANSTARRS,e,13.3213,207.1299,214.3960,3.793014,0.1334220,0.44744137,142.7275,04/27.0/2024,2000,g 14.0,4.0
# From MPEC 2022-ED3
400P/PANSTARRS,e,10.9294,176.4033,238.8601,3.561928,0.1466143,0.40971961,171.6897,04/27.0/2024,2000,g 15.5,2.8
# From MPEC 2022-K19
401P/McNaught,e,12.8015,359.9077,309.4210,5.777884,0.0709661,0.57875356,113.8767,04/27.0/2024,2000,g 12.5,4.0
# From MPEC 2024-F34
402P/LINEAR,e,30.8329,123.0698,326.8602,7.033969,0.0528328,0.43995278,45.6252,04/27.0/2024,2000,g  8.0,4.0
# From MPEC 2021-J28
403P/Catalina,e,12.3282,277.5779,163.8974,5.430460,0.0778842,0.50427120,102.6296,04/27.0/2024,2000,g 12.0,4.0
# From MPEC 2024-GJ3
404P/Bressi,e,9.8018,260.0368,169.3526,4.727951,0.0958726,0.12590456,16.7826,04/27.0/2024,2000,g 10.0,4.0
# From MPEC 2021-L04
405P/Lemmon,e,9.3751,112.1899,3.2951,3.604806,0.1440062,0.68984499,175.5742,04/27.0/2024,2000,g 17.5,4.0
# From MPEC 2021-F20
406P/Gibbs,e,1.2110,352.4143,11.5426,3.578327,0.1456076,0.54155023,192.0718,04/27.0/2024,2000,g 17.0,4.0
# From MPEC 2022-YN2
407P/PANSTARRS-Fuls,e,4.8760,80.2477,93.4693,3.485242,0.1514798,0.37698463,235.8116,04/27.0/2024,2000,g 14.0,4.0
# From MPEC 2024-GJ3
408P/Novichonok-Gerke,e,19.3563,189.4440,226.5816,4.743413,0.0954042,0.26867866,54.3134,04/27.0/2024,2000,g 11.0,4.0
# From MPEC 2022-ED3
409P/LONEOS-Hill,e,17.1340,143.6483,15.0563,6.034157,0.0664935,0.70984962,78.7882,04/27.0/2024,2000,g 14.0,4.0
# From MPEC 2022-M21
410P/NEAT-LINEAR,e,9.3890,139.9696,313.1581,6.647958,0.0575005,0.51163353,59.6723,04/27.0/2024,2000,g 12.5,4.0
# From MPEC 2021-J28
411P/Christensen,e,12.3889,77.6529,46.5552,5.811342,0.0703541,0.58138689,83.5947,04/27.0/2024,2000,g 13.5,4.0
# From MPEC 2021-F20
412P/WISE,e,8.9310,0.8457,155.8975,3.110554,0.1796584,0.47894146,222.7630,04/27.0/2024,2000,g 17.0,4.0
# From MPEC 2022-OB6
413P/Larson,e,15.9782,39.2292,186.5445,3.732084,0.1367027,0.41959090,138.5294,04/27.0/2024,2000,g 14.0,4.0
# From MPEC 2021-BE3
414P/STEREO,e,23.4068,257.8182,210.6865,2.792833,0.2111722,0.81210640,250.7466,04/27.0/2024,2000,g 19.0,4.0
# From MPEC 2022-J42
415P/Tenagra,e,31.7974,160.2698,345.8831,4.109765,0.1182983,0.19507838,138.2323,04/27.0/2024,2000,g 12.0,4.0
# From MPEC 2021-L04
416P/Scotti,e,3.3619,355.7652,134.4087,4.007788,0.1228420,0.45497361,143.2665,04/27.0/2024,2000,g 15.5,4.0
# From MPEC 2021-W31
417P/NEOWISE,e,8.3321,123.7224,115.9744,3.308118,0.1638071,0.57103228,179.0461,04/27.0/2024,2000,g 16.5,4.0
# From MPEC 2022-TA0
418P/LINEAR,e,5.7802,277.6474,307.3691,5.094170,0.0857223,0.66376799,79.1406,04/27.0/2024,2000,g 13.0,4.0
# From MPEC 2023-UR6
419P/PANSTARRS,e,2.8011,40.4115,187.8730,3.527633,0.1487576,0.27598062,135.7453,04/27.0/2024,2000,g 12.5,4.0
# From MPEC 2024-C04
420P/Hill,e,14.4850,173.7881,156.5443,5.502760,0.0763542,0.49544794,54.0601,04/27.0/2024,2000,g 11.5,4.0
# From MPEC 2021-W31
421P/McNaught,e,10.0757,55.3314,259.8970,5.076305,0.0861752,0.67468676,102.3825,04/27.0/2024,2000,g 14.0,4.0
# From MPEC 2022-X67
422P/Christensen,e,39.5834,36.0246,304.8347,6.281999,0.0625975,0.50634614,52.3380,04/27.0/2024,2000,g 11.0,4.0
# From MPEC 2023-FK0
423P/Lemmon,e,8.3456,33.2982,80.5430,6.176464,0.0642087,0.12245107,60.8825,04/27.0/2024,2000,g  8.0,4.0
# From MPEC 2022-CN4
424P/LaSagra,e,8.6830,51.1928,312.5514,4.419403,0.1060861,0.69093248,96.3805,04/27.0/2024,2000,g 17.0,4.0
# From MPEC 2024-C04
425P/Kowalski,e,16.4204,210.0755,200.9100,6.346101,0.0616515,0.54402805,58.5050,04/27.0/2024,2000,g 12.0,4.0
# From MPEC 2024-A43
426P/PANSTARRS,e,17.7804,280.3948,118.5856,3.187957,0.1731551,0.16144537,39.6101,04/27.0/2024,2000,g 13.5,4.0
# From MPEC 2023-J29
428P/Gibbs,e,8.5059,299.3280,36.9029,3.487191,0.1513528,0.51870209,163.2878,04/27.0/2024,2000,g 15.0,4.0
# From MPEC 2024-EF7
429P/LINEAR-Hill,e,7.5165,322.0506,75.6644,3.554465,0.1470763,0.49129175,124.3782,04/27.0/2024,2000,g 15.5,4.0
# From MPEC 2022-L66
430P/Scotti,e,4.4752,54.6685,94.4239,3.104200,0.1802102,0.49984056,158.0030,04/27.0/2024,2000,g 16.5,4.0
# From MPEC 2024-EF7
431P/Scotti,e,22.3904,202.8432,199.9609,3.475809,0.1520968,0.47771180,122.1987,04/27.0/2024,2000,g 14.0,4.0
# From MPEC 2021-U31
